     3.04           N: GNSS NAV DATA    M: MIXED            RINEX VERSION / TYPE
ssrcrin-15.6.1x                         20250101 181500 UTC PGM / RUN BY / DATE 
    18                                                      LEAP SECONDS        
                                                            END OF HEADER       
S21 2025 01 01 18 14 08 0.000000000000E+00 0.000000000000E+00 3.249320000000E+05
     4.200468400000E+04 0.000000000000E+00 0.000000000000E+00 6.300000000000E+01
    -3.674932960000E+03 0.000000000000E+00 0.000000000000E+00 3.276700000000E+04
     0.000000000000E+00 0.000000000000E+00 0.000000000000E+00 2.490000000000E+02
S23 2025 01 01 18 15 28 0.000000000000E+00 0.000000000000E+00 3.249410000000E+05
     3.866796400000E+04 0.000000000000E+00 0.000000000000E+00 6.300000000000E+01
     1.681330800000E+04 0.000000000000E+00 0.000000000000E+00 3.276700000000E+04
     0.000000000000E+00 0.000000000000E+00 0.000000000000E+00 2.530000000000E+02
S27 2025 01 01 18 13 20 0.000000000000E+00 0.000000000000E+00 3.249530000000E+05
     2.413510736000E+04 4.871250000000E-03 1.250000000000E-08 6.300000000000E+01
     3.461554984000E+04-1.998125000000E-03-2.500000000000E-07 3.276700000000E+04
    -1.647020000000E+02 3.920000000000E-02 8.750000000000E-07 2.540000000000E+02
S28 2025 01 01 18 13 20 1.024454832077E-08 2.273736754432E-11 3.249530000000E+05
     5.119276000000E+03 2.595625000000E-03-5.000000000000E-08 3.100000000000E+01
     4.187272880000E+04-6.543750000000E-04-6.250000000000E-08 4.096000000000E+03
     1.132520000000E+01-1.456000000000E-03-6.250000000000E-08 2.540000000000E+02
S36 2025 01 01 18 14 40 0.000000000000E+00 0.000000000000E+00 3.249620000000E+05
     4.200368800000E+04 0.000000000000E+00 0.000000000000E+00 6.300000000000E+01
     3.674846960000E+03 0.000000000000E+00 0.000000000000E+00 3.276700000000E+04
     0.000000000000E+00 0.000000000000E+00 0.000000000000E+00 7.100000000000E+01
R10 2025 01 01 18 15 00-2.654800191522E-04-5.456968210638E-12 3.249600000000E+05
    -9.469514160156E+03 2.654254913330E+00 9.313225746155E-10 0.000000000000E+00
    -1.245079101562E+04 7.562465667725E-01 9.313225746155E-10-7.000000000000E+00
     2.010525537109E+04 1.724575996399E+00-2.793967723846E-09 0.000000000000E+00
S44 2025 01 01 18 16 32 8.419156074524E-07 0.000000000000E+00 3.249920000000E+05
     7.327532960000E+03 2.387500000000E-04-2.000000000000E-07 6.300000000000E+01
     4.150627720000E+04-3.096250000000E-03 1.000000000000E-07 3.276700000000E+04
     1.659502800000E+03 7.136000000000E-02-4.375000000000E-06 6.000000000000E+01
S21 2025 01 01 18 16 48 0.000000000000E+00 0.000000000000E+00 3.250170000000E+05
     4.200468400000E+04 0.000000000000E+00 0.000000000000E+00 6.300000000000E+01
    -3.674932960000E+03 0.000000000000E+00 0.000000000000E+00 3.276700000000E+04
     0.000000000000E+00 0.000000000000E+00 0.000000000000E+00 2.500000000000E+02
S27 2025 01 01 18 17 36 0.000000000000E+00 0.000000000000E+00 3.250300000000E+05
     2.413635296000E+04 4.876250000000E-03 1.250000000000E-08 6.300000000000E+01
     3.461502968000E+04-2.062500000000E-03-2.500000000000E-07 3.276700000000E+04
    -1.546388000000E+02 3.942000000000E-02 8.125000000000E-07 2.550000000000E+02
S28 2025 01 01 18 17 36 1.583248376846E-08 2.728484105319E-11 3.250300000000E+05
     5.119938880000E+03 2.555625000000E-03-5.000000000000E-08 3.100000000000E+01
     4.187255920000E+04-7.318750000000E-04-6.250000000000E-08 4.096000000000E+03
     1.095040000000E+01-1.468000000000E-03-6.250000000000E-08 2.550000000000E+02
S36 2025 01 01 18 17 04 0.000000000000E+00 0.000000000000E+00 3.250380000000E+05
     4.200368800000E+04 0.000000000000E+00 0.000000000000E+00 6.300000000000E+01
     3.674846960000E+03 0.000000000000E+00 0.000000000000E+00 3.276700000000E+04
     0.000000000000E+00 0.000000000000E+00 0.000000000000E+00 7.200000000000E+01
S23 2025 01 01 18 17 36 0.000000000000E+00 0.000000000000E+00 3.250680000000E+05
     3.866796400000E+04 0.000000000000E+00 0.000000000000E+00 6.300000000000E+01
     1.681330800000E+04 0.000000000000E+00 0.000000000000E+00 3.276700000000E+04
     0.000000000000E+00 0.000000000000E+00 0.000000000000E+00 2.540000000000E+02
S44 2025 01 01 18 18 40 8.419156074524E-07 0.000000000000E+00 3.251120000000E+05
     7.327560240000E+03 1.868750000000E-04-2.000000000000E-07 6.300000000000E+01
     4.150588272000E+04-3.066875000000E-03 1.125000000000E-07 3.276700000000E+04
     1.668565200000E+03 7.023200000000E-02-4.375000000000E-06 6.000000000000E+01
G07 2025 01 01 20 00 00-1.407228410244E-05 6.821210263297E-13 0.000000000000E+00
     9.200000000000E+01 9.718750000000E+00 4.819486465242E-09-1.929270432715E+00
     4.414469003677E-07 1.890050899237E-02 7.487833499908E-06 5.153755668640E+03
     3.312000000000E+05 3.147870302200E-07 1.278560692339E+00-4.842877388000E-08
     9.500063405830E-01 2.211562500000E+02-2.086110675820E+00-7.747822727916E-09
     8.278916278665E-10 1.000000000000E+00 2.347000000000E+03 0.000000000000E+00
     2.800000000000E+00 0.000000000000E+00-1.071020960808E-08 9.200000000000E+01
     3.251580000000E+05 4.000000000000E+00
S21 2025 01 01 18 19 28 0.000000000000E+00 0.000000000000E+00 3.251790000000E+05
     4.200468400000E+04 0.000000000000E+00 0.000000000000E+00 6.300000000000E+01
    -3.674932960000E+03 0.000000000000E+00 0.000000000000E+00 3.276700000000E+04
     0.000000000000E+00 0.000000000000E+00 0.000000000000E+00 2.510000000000E+02
S36 2025 01 01 18 19 44 0.000000000000E+00 0.000000000000E+00 3.251880000000E+05
     4.200368800000E+04 0.000000000000E+00 0.000000000000E+00 6.300000000000E+01
     3.674846960000E+03 0.000000000000E+00 0.000000000000E+00 3.276700000000E+04
     0.000000000000E+00 0.000000000000E+00 0.000000000000E+00 7.300000000000E+01
E05 2025 01 01 18 00 00 4.815357679036E-03 3.296918293927E-12 0.000000000000E+00
     3.200000000000E+01-1.662187500000E+02 2.720113303637E-09-2.760036288281E+00
    -7.903203368187E-06 2.207932993770E-05 1.087039709091E-05 5.440614587784E+03
     3.240000000000E+05-2.235174179077E-08 3.131204182651E-01-5.587935447693E-09
     9.636074176596E-01 1.098750000000E+02-2.653922287773E+00-5.232003648238E-09
     2.871548182937E-10 2.580000000000E+02 2.347000000000E+03
     3.120000000000E+00 0.000000000000E+00 1.396983861923E-09 0.000000000000E+00
     3.251900000000E+05
S23 2025 01 01 18 19 44 0.000000000000E+00 0.000000000000E+00 3.251960000000E+05
     3.866796400000E+04 0.000000000000E+00 0.000000000000E+00 6.300000000000E+01
     1.681330800000E+04 0.000000000000E+00 0.000000000000E+00 3.276700000000E+04
     0.000000000000E+00 0.000000000000E+00 0.000000000000E+00 2.550000000000E+02
E05 2025 01 01 18 00 00 4.815359076019E-03 3.282707439212E-12 0.000000000000E+00
     3.200000000000E+01-1.662187500000E+02 2.720113303637E-09-2.760036288281E+00
    -7.903203368187E-06 2.207932993770E-05 1.087039709091E-05 5.440614587784E+03
     3.240000000000E+05-2.235174179077E-08 3.131204182651E-01-5.587935447693E-09
     9.636074176596E-01 1.098750000000E+02-2.653922287773E+00-5.232003648238E-09
     2.871548182937E-10 5.170000000000E+02 2.347000000000E+03
     3.120000000000E+00 0.000000000000E+00 1.396983861923E-09 2.561137080193E-09
     3.252240000000E+05
R03 2025 01 01 18 15 00 1.142630353570E-04 9.094947017729E-13 3.252000000000E+05
     7.673892089844E+03 2.884178161621E-01-1.862645149231E-09 0.000000000000E+00
     2.418215478516E+04 3.448648452759E-01 2.793967723846E-09 5.000000000000E+00
    -2.920074218750E+03 3.549250602722E+00 2.793967723846E-09 0.000000000000E+00
S44 2025 01 01 18 20 48 8.419156074524E-07 0.000000000000E+00 3.252320000000E+05
     7.327580880000E+03 1.350000000000E-04-2.000000000000E-07 6.300000000000E+01
     4.150549200000E+04-3.036875000000E-03 1.125000000000E-07 3.276700000000E+04
     1.677482000000E+03 6.909200000000E-02-4.437500000000E-06 6.000000000000E+01
E21 2025 01 01 18 10 00-6.376176024787E-04-2.245315045002E-12 0.000000000000E+00
     3.300000000000E+01-2.156250000000E+01 3.558362505796E-09 9.465371327623E-01
    -9.518116712570E-07 2.549047349021E-04 6.405636668205E-06 5.440603881836E+03
     3.246000000000E+05-1.490116119385E-08 2.413506936274E+00 3.352761268616E-08
     9.642260549941E-01 2.049062500000E+02 1.030326368475E+00-5.530587514026E-09
    -5.178787145843E-10 5.170000000000E+02 2.347000000000E+03
     3.120000000000E+00 0.000000000000E+00 0.000000000000E+00 6.984919309616E-10
     3.252650000000E+05
E27 2025 01 01 18 10 00-5.450626485981E-04-9.890754881781E-12 0.000000000000E+00
     3.300000000000E+01-2.084375000000E+01 3.520146628237E-09 2.218839110458E+00
    -9.667128324509E-07 3.201839281246E-04 6.301328539848E-06 5.440604587555E+03
     3.246000000000E+05-8.009374141693E-08 2.413479431952E+00 2.793967723846E-08
     9.641977241226E-01 2.078437500000E+02 5.557526480257E-01-5.558088659559E-09
    -5.564517498775E-10 5.170000000000E+02 2.347000000000E+03
     3.120000000000E+00 0.000000000000E+00-2.328306436539E-10 2.328306436539E-10
     3.252650000000E+05
E23 2025 01 01 18 10 00 8.344475645572E-06-2.557953848736E-13 0.000000000000E+00
     3.300000000000E+01-1.696875000000E+01 3.545147669630E-09-4.136018008837E-01
    -6.780028343201E-07 3.608015831560E-04 6.310641765594E-06 5.440606033325E+03
     3.246000000000E+05 4.842877388000E-08 2.409486397054E+00 3.911554813385E-08
     9.661073120531E-01 2.073125000000E+02 1.612273939853E+00-5.551659820344E-09
    -5.189501877869E-10 5.170000000000E+02 2.347000000000E+03
     3.120000000000E+00 3.900000000000E+02-6.984919309616E-10 1.164153218269E-09
     3.252650000000E+05
